[{"OBJECT_NAME":"FLOCK 4G-6","OBJECT_ID":"2025-009BD","EPOCH":"2026-03-09T17:03:16.973568","MEAN_MOTION":15.27432125,"ECCENTRICITY":0.00023795,"INCLINATION":97.398,"RA_OF_ASC_NODE":150.7943,"ARG_OF_PERICENTER":348.2637,"MEAN_ANOMALY":11.8546,"EPHEMERIS_TYPE":0,"CLASSIFICATION_TYPE":"U","NORAD_CAT_ID":62660,"ELEMENT_SET_NO":999,"REV_AT_EPOCH":12130,"BSTAR":0.00045909501,"MEAN_MOTION_DOT":0.00012261,"MEAN_MOTION_DDOT":0},{"OBJECT_NAME":"STARLINK-36174","OBJECT_ID":"2025-303D","EPOCH":"2026-03-09T01:54:54.106560","MEAN_MOTION":15.2759752,"ECCENTRICITY":0.00025097,"INCLINATION":43.0029,"RA_OF_ASC_NODE":314.0153,"ARG_OF_PERICENTER":253.7546,"MEAN_ANOMALY":106.303,"EPHEMERIS_TYPE":0,"CLASSIFICATION_TYPE":"U","NORAD_CAT_ID":67166,"ELEMENT_SET_NO":999,"REV_AT_EPOCH":1264,"BSTAR":0.001439838,"MEAN_MOTION_DOT":0.00039595,"MEAN_MOTION_DDOT":0}]
